[{"OBJECT_NAME":"AEROCUBE 6B","OBJECT_ID":"2014-033AN","EPOCH":"2026-03-09T10:13:48.857088","MEAN_MOTION":14.98232474,"ECCENTRICITY":0.00374529,"INCLINATION":97.7129,"RA_OF_ASC_NODE":236.1645,"ARG_OF_PERICENTER":343.23,"MEAN_ANOMALY":16.7681,"EPHEMERIS_TYPE":0,"CLASSIFICATION_TYPE":"U","NORAD_CAT_ID":40046,"ELEMENT_SET_NO":999,"REV_AT_EPOCH":63181,"BSTAR":0.00066368498,"MEAN_MOTION_DOT":7.941e-5,"MEAN_MOTION_DDOT":0},{"OBJECT_NAME":"COSMOS 2251 DEB","OBJECT_ID":"1993-036BYJ","EPOCH":"2026-02-27T08:25:05.077344","MEAN_MOTION":15.02778291,"ECCENTRICITY":0.0017194,"INCLINATION":74.0208,"RA_OF_ASC_NODE":84.7822,"ARG_OF_PERICENTER":181.9976,"MEAN_ANOMALY":194.0424,"EPHEMERIS_TYPE":0,"CLASSIFICATION_TYPE":"U","NORAD_CAT_ID":47116,"ELEMENT_SET_NO":999,"REV_AT_EPOCH":60660,"BSTAR":0.0017596726,"MEAN_MOTION_DOT":0.00023658,"MEAN_MOTION_DDOT":0}]
